{"fetched_at":"2026-07-22T07:10:10.292Z","source":"https://celestrak.org/NORAD/elements/gp.php?NAME=TIGER&FORMAT=JSON","constellation":"oq-technology","records":[{"OBJECT_NAME":"TIGER-8","OBJECT_ID":"2024-043Y","EPOCH":"2026-07-21T08:25:54.602688","CLASSIFICATION_TYPE":"U","MEAN_MOTION":15.45240845,"ECCENTRICITY":0.00088369,"INCLINATION":97.5582,"RA_OF_ASC_NODE":352.347,"ARG_OF_PERICENTER":84.574,"MEAN_ANOMALY":275.6516,"EPHEMERIS_TYPE":0,"NORAD_CAT_ID":59120,"ELEMENT_SET_NO":999,"REV_AT_EPOCH":13306,"BSTAR":0.0001684571,"MEAN_MOTION_DOT":0.00007923,"MEAN_MOTION_DDOT":0},{"OBJECT_NAME":"TIGER-7","OBJECT_ID":"2024-043AV","EPOCH":"2026-07-21T08:51:13.823136","CLASSIFICATION_TYPE":"U","MEAN_MOTION":15.49439659,"ECCENTRICITY":0.0006591,"INCLINATION":97.5518,"RA_OF_ASC_NODE":354.9084,"ARG_OF_PERICENTER":59.3758,"MEAN_ANOMALY":300.8142,"EPHEMERIS_TYPE":0,"NORAD_CAT_ID":59141,"ELEMENT_SET_NO":999,"REV_AT_EPOCH":13326,"BSTAR":0.00019323214,"MEAN_MOTION_DOT":0.00010528,"MEAN_MOTION_DDOT":0}]}
