{"epoch":1784710044,"count":18256,"objects":[{"id":"59120","name":"TIGER-8","type":"PAYLOAD","l1":"1 59120U 24043Y   26202.35132642  .00007923  00000-0  16846-3 0  9997","l2":"2 59120  97.5582 352.3470 0008837  84.5740 275.6516 15.45240845133066"},{"id":"59141","name":"TIGER-7","type":"PAYLOAD","l1":"1 59141U 24043AV  26202.36890999  .00010528  00000-0  19323-3 0  9995","l2":"2 59141  97.5518 354.9084 0006591  59.3758 300.8142 15.49439659133266"}]}